JY1SAT (JO-97)          
1 43803U 18099AX  26068.68634132  .00017774  00000+0  60804-3 0  9996
2 43803  97.4249 131.3625 0004723 256.6795 103.3919 15.30302628398390
STARLINK-31913          
1 59667U 24084P   26068.28563546  .00000152  00000+0  15055-4 0  9999
2 59667  43.0063  40.4201 0001926 269.9979  90.0652 15.27582330104352
